SHIJIAN-16 (SJ-16)      
1 39358U 13057A   25332.18519451  .00002228  00000+0  22246-3 0  9995
2 39358  74.9736  17.1924 0017119 354.2559   5.8429 14.91926763656364
SL-4 R/B                
1 39679U 14021B   25331.46031089  .00013456  00000+0  32537-3 0  9998
2 39679  51.6068 114.8192 0103079  91.2561 270.0233 15.36104683640545
ALOS-2                  
1 39766U 14029A   25332.20196080  .00002443  00000+0  33377-3 0  9996
2 39766  97.9229  67.2547 0001381  99.6502 260.4866 14.79488383621866
YAOGAN-29               
1 41038U 15069A   25332.17692039  .00000567  00000+0  76703-4 0  9993
2 41038  98.0234 355.3010 0001163  19.1473 340.9784 14.82857712540837
ASTRO-H (HITOMI)        
1 41337U 16012A   25332.20674424  .00003818  00000+0  22839-3 0  9998
2 41337  31.0003 291.0531 0009560  30.8267 329.2931 15.09213368536881
HXMT (HUIYAN)           
1 42758U 17034A   25332.16541959  .00007199  00000+0  37412-3 0  9991
2 42758  43.0134 220.4946 0033596 311.4019  48.3942 15.16060242467122
CZ-2C R/B               
1 43521U 18054D   25332.19473595  .00102649  00000+0  78263-3 0  9991
2 43521  35.1348 279.2741 0019673 353.0379   7.0078 15.70659997412769
SAOCOM 1A               
1 43641U 18076A   25332.15714030  .00000594  00000+0  81160-4 0  9993
2 43641  97.8850 156.7913 0001578  89.0317 271.1077 14.82152643386321
H-2A R/B                
1 43682U 18084L   25332.10941398  .00020399  00000+0  56487-3 0  9999
2 43682  98.8790 163.1651 0028453  16.3943 343.8210 15.36627231390152
SAOCOM 1B               
1 46265U 20059A   25332.18838374  .00000579  00000+0  79321-4 0  9992
2 46265  97.8845 155.9235 0001349  90.8258 269.3110 14.82161377283718
CSS (TIANHE)            
1 48274U 21035A   25331.84998818  .00016597  00000+0  21579-3 0  9999
2 48274  41.4664 107.0411 0010719 283.2651  76.6991 15.58344779261708
COSMOS 2550             
1 48865U 21056A   25330.81540081 -.00000141  00000+0  15339-5 0  9997
2 48865  67.1432 352.1024 0008298 270.4119  89.6085 15.33840302247686
