CCSDS_OMM_VERS = 2.0
CREATION_DATE  = 
ORIGINATOR     = 

OBJECT_NAME    = SHIJIAN-16 (SJ-16)
OBJECT_ID      = 2013-057A
CENTER_NAME    = EARTH
REF_FRAME      = TEME
TIME_SYSTEM    = UTC
MEAN_ELEMENT_THEORY = SGP/SGP4

EPOCH          = 2025-11-28T04:26:40.805664
MEAN_MOTION    = 14.91926763
ECCENTRICITY   = .0017119
INCLINATION    = 74.9736
RA_OF_ASC_NODE = 17.1924
ARG_OF_PERICENTER = 354.2559
MEAN_ANOMALY   = 5.8429

EPHEMERIS_TYPE = 0
CLASSIFICATION_TYPE = U
NORAD_CAT_ID   = 39358
ELEMENT_SET_NO = 999
REV_AT_EPOCH   = 65636
BSTAR          = .22246E-3
MEAN_MOTION_DOT = .2228E-4
MEAN_MOTION_DDOT = 0

CCSDS_OMM_VERS = 2.0
CREATION_DATE  = 
ORIGINATOR     = 

OBJECT_NAME    = SL-4 R/B
OBJECT_ID      = 2014-021B
CENTER_NAME    = EARTH
REF_FRAME      = TEME
TIME_SYSTEM    = UTC
MEAN_ELEMENT_THEORY = SGP/SGP4

EPOCH          = 2025-11-27T11:02:50.860896
MEAN_MOTION    = 15.36104683
ECCENTRICITY   = .01030798
INCLINATION    = 51.6068
RA_OF_ASC_NODE = 114.8192
ARG_OF_PERICENTER = 91.2561
MEAN_ANOMALY   = 270.0233

EPHEMERIS_TYPE = 0
CLASSIFICATION_TYPE = U
NORAD_CAT_ID   = 39679
ELEMENT_SET_NO = 999
REV_AT_EPOCH   = 64054
BSTAR          = .32537247E-3
MEAN_MOTION_DOT = .13456E-3
MEAN_MOTION_DDOT = 0

CCSDS_OMM_VERS = 2.0
CREATION_DATE  = 
ORIGINATOR     = 

OBJECT_NAME    = ALOS-2
OBJECT_ID      = 2014-029A
CENTER_NAME    = EARTH
REF_FRAME      = TEME
TIME_SYSTEM    = UTC
MEAN_ELEMENT_THEORY = SGP/SGP4

EPOCH          = 2025-11-28T04:50:49.413120
MEAN_MOTION    = 14.79488383
ECCENTRICITY   = .0001381
INCLINATION    = 97.9229
RA_OF_ASC_NODE = 67.2547
ARG_OF_PERICENTER = 99.6502
MEAN_ANOMALY   = 260.4866

EPHEMERIS_TYPE = 0
CLASSIFICATION_TYPE = U
NORAD_CAT_ID   = 39766
ELEMENT_SET_NO = 999
REV_AT_EPOCH   = 62186
BSTAR          = .33377E-3
MEAN_MOTION_DOT = .2443E-4
MEAN_MOTION_DDOT = 0

CCSDS_OMM_VERS = 2.0
CREATION_DATE  = 
ORIGINATOR     = 

OBJECT_NAME    = YAOGAN-29
OBJECT_ID      = 2015-069A
CENTER_NAME    = EARTH
REF_FRAME      = TEME
TIME_SYSTEM    = UTC
MEAN_ELEMENT_THEORY = SGP/SGP4

EPOCH          = 2025-11-28T04:14:45.921696
MEAN_MOTION    = 14.82857712
ECCENTRICITY   = .0001163
INCLINATION    = 98.0234
RA_OF_ASC_NODE = 355.3010
ARG_OF_PERICENTER = 19.1473
MEAN_ANOMALY   = 340.9784

EPHEMERIS_TYPE = 0
CLASSIFICATION_TYPE = U
NORAD_CAT_ID   = 41038
ELEMENT_SET_NO = 999
REV_AT_EPOCH   = 54083
BSTAR          = .76703E-4
MEAN_MOTION_DOT = .567E-5
MEAN_MOTION_DDOT = 0

CCSDS_OMM_VERS = 2.0
CREATION_DATE  = 
ORIGINATOR     = 

OBJECT_NAME    = ASTRO-H (HITOMI)
OBJECT_ID      = 2016-012A
CENTER_NAME    = EARTH
REF_FRAME      = TEME
TIME_SYSTEM    = UTC
MEAN_ELEMENT_THEORY = SGP/SGP4

EPOCH          = 2025-11-28T04:57:42.702336
MEAN_MOTION    = 15.09213368
ECCENTRICITY   = .000956
INCLINATION    = 31.0003
RA_OF_ASC_NODE = 291.0531
ARG_OF_PERICENTER = 30.8267
MEAN_ANOMALY   = 329.2931

EPHEMERIS_TYPE = 0
CLASSIFICATION_TYPE = U
NORAD_CAT_ID   = 41337
ELEMENT_SET_NO = 999
REV_AT_EPOCH   = 53688
BSTAR          = .22839E-3
MEAN_MOTION_DOT = .3818E-4
MEAN_MOTION_DDOT = 0

CCSDS_OMM_VERS = 2.0
CREATION_DATE  = 
ORIGINATOR     = 

OBJECT_NAME    = HXMT (HUIYAN)
OBJECT_ID      = 2017-034A
CENTER_NAME    = EARTH
REF_FRAME      = TEME
TIME_SYSTEM    = UTC
MEAN_ELEMENT_THEORY = SGP/SGP4

EPOCH          = 2025-11-28T03:58:12.252576
MEAN_MOTION    = 15.16060242
ECCENTRICITY   = .0033596
INCLINATION    = 43.0134
RA_OF_ASC_NODE = 220.4946
ARG_OF_PERICENTER = 311.4019
MEAN_ANOMALY   = 48.3942

EPHEMERIS_TYPE = 0
CLASSIFICATION_TYPE = U
NORAD_CAT_ID   = 42758
ELEMENT_SET_NO = 999
REV_AT_EPOCH   = 46712
BSTAR          = .37412E-3
MEAN_MOTION_DOT = .7199E-4
MEAN_MOTION_DDOT = 0

CCSDS_OMM_VERS = 2.0
CREATION_DATE  = 
ORIGINATOR     = 

OBJECT_NAME    = CZ-2C R/B
OBJECT_ID      = 2018-054D
CENTER_NAME    = EARTH
REF_FRAME      = TEME
TIME_SYSTEM    = UTC
MEAN_ELEMENT_THEORY = SGP/SGP4

EPOCH          = 2025-11-28T04:40:25.186080
MEAN_MOTION    = 15.70659997
ECCENTRICITY   = .0019673
INCLINATION    = 35.1348
RA_OF_ASC_NODE = 279.2741
ARG_OF_PERICENTER = 353.0379
MEAN_ANOMALY   = 7.0078

EPHEMERIS_TYPE = 0
CLASSIFICATION_TYPE = U
NORAD_CAT_ID   = 43521
ELEMENT_SET_NO = 999
REV_AT_EPOCH   = 41276
BSTAR          = .78263E-3
MEAN_MOTION_DOT = .102649E-2
MEAN_MOTION_DDOT = 0

CCSDS_OMM_VERS = 2.0
CREATION_DATE  = 
ORIGINATOR     = 

OBJECT_NAME    = SAOCOM 1A
OBJECT_ID      = 2018-076A
CENTER_NAME    = EARTH
REF_FRAME      = TEME
TIME_SYSTEM    = UTC
MEAN_ELEMENT_THEORY = SGP/SGP4

EPOCH          = 2025-11-28T03:46:16.921920
MEAN_MOTION    = 14.82152643
ECCENTRICITY   = .0001578
INCLINATION    = 97.8850
RA_OF_ASC_NODE = 156.7913
ARG_OF_PERICENTER = 89.0317
MEAN_ANOMALY   = 271.1077

EPHEMERIS_TYPE = 0
CLASSIFICATION_TYPE = U
NORAD_CAT_ID   = 43641
ELEMENT_SET_NO = 999
REV_AT_EPOCH   = 38632
BSTAR          = .8116E-4
MEAN_MOTION_DOT = .594E-5
MEAN_MOTION_DDOT = 0

CCSDS_OMM_VERS = 2.0
CREATION_DATE  = 
ORIGINATOR     = 

OBJECT_NAME    = H-2A R/B
OBJECT_ID      = 2018-084L
CENTER_NAME    = EARTH
REF_FRAME      = TEME
TIME_SYSTEM    = UTC
MEAN_ELEMENT_THEORY = SGP/SGP4

EPOCH          = 2025-11-28T02:37:33.367872
MEAN_MOTION    = 15.36627231
ECCENTRICITY   = .0028453
INCLINATION    = 98.8790
RA_OF_ASC_NODE = 163.1651
ARG_OF_PERICENTER = 16.3943
MEAN_ANOMALY   = 343.8210

EPHEMERIS_TYPE = 0
CLASSIFICATION_TYPE = U
NORAD_CAT_ID   = 43682
ELEMENT_SET_NO = 999
REV_AT_EPOCH   = 39015
BSTAR          = .56487E-3
MEAN_MOTION_DOT = .20399E-3
MEAN_MOTION_DDOT = 0

CCSDS_OMM_VERS = 2.0
CREATION_DATE  = 
ORIGINATOR     = 

OBJECT_NAME    = SAOCOM 1B
OBJECT_ID      = 2020-059A
CENTER_NAME    = EARTH
REF_FRAME      = TEME
TIME_SYSTEM    = UTC
MEAN_ELEMENT_THEORY = SGP/SGP4

EPOCH          = 2025-11-28T04:31:16.355136
MEAN_MOTION    = 14.82161377
ECCENTRICITY   = .0001349
INCLINATION    = 97.8845
RA_OF_ASC_NODE = 155.9235
ARG_OF_PERICENTER = 90.8258
MEAN_ANOMALY   = 269.3110

EPHEMERIS_TYPE = 0
CLASSIFICATION_TYPE = U
NORAD_CAT_ID   = 46265
ELEMENT_SET_NO = 999
REV_AT_EPOCH   = 28371
BSTAR          = .79321E-4
MEAN_MOTION_DOT = .579E-5
MEAN_MOTION_DDOT = 0

CCSDS_OMM_VERS = 2.0
CREATION_DATE  = 
ORIGINATOR     = 

OBJECT_NAME    = CSS (TIANHE)
OBJECT_ID      = 2021-035A
CENTER_NAME    = EARTH
REF_FRAME      = TEME
TIME_SYSTEM    = UTC
MEAN_ELEMENT_THEORY = SGP/SGP4

EPOCH          = 2025-11-27T20:23:58.978752
MEAN_MOTION    = 15.58344779
ECCENTRICITY   = .0010719
INCLINATION    = 41.4664
RA_OF_ASC_NODE = 107.0411
ARG_OF_PERICENTER = 283.2651
MEAN_ANOMALY   = 76.6991

EPHEMERIS_TYPE = 0
CLASSIFICATION_TYPE = U
NORAD_CAT_ID   = 48274
ELEMENT_SET_NO = 999
REV_AT_EPOCH   = 26170
BSTAR          = .21579E-3
MEAN_MOTION_DOT = .16597E-3
MEAN_MOTION_DDOT = 0

CCSDS_OMM_VERS = 2.0
CREATION_DATE  = 
ORIGINATOR     = 

OBJECT_NAME    = COSMOS 2550
OBJECT_ID      = 2021-056A
CENTER_NAME    = EARTH
REF_FRAME      = TEME
TIME_SYSTEM    = UTC
MEAN_ELEMENT_THEORY = SGP/SGP4

EPOCH          = 2025-11-26T19:34:10.629984
MEAN_MOTION    = 15.33840302
ECCENTRICITY   = .0008298
INCLINATION    = 67.1432
RA_OF_ASC_NODE = 352.1024
ARG_OF_PERICENTER = 270.4119
MEAN_ANOMALY   = 89.6085

EPHEMERIS_TYPE = 0
CLASSIFICATION_TYPE = U
NORAD_CAT_ID   = 48865
ELEMENT_SET_NO = 999
REV_AT_EPOCH   = 24768
BSTAR          = .1533894E-5
MEAN_MOTION_DOT = -.141E-5
MEAN_MOTION_DDOT = 0

